{
  "type": "FeatureCollection",
  "_meta": {
    "demo": true,
    "description": "Real street centreline. Route-check candidate: schools + high school along this road.",
    "source": "OpenStreetMap contributors, via Overpass API, fetched 2026-09-03. ODbL 1.0."
  },
  "features": [
    {
      "type": "Feature",
      "properties": {
        "name": "Sotto Street"
      },
      "geometry": {
        "type": "LineString",
        "coordinates": [
          [
            120.6051665,
            18.1698674
          ],
          [
            120.6052042,
            18.169942
          ],
          [
            120.6053711,
            18.1702797
          ],
          [
            120.6057195,
            18.1708806
          ],
          [
            120.6057707,
            18.1709692
          ],
          [
            120.6060908,
            18.1715238
          ],
          [
            120.6061273,
            18.1715872
          ],
          [
            120.6063571,
            18.172037
          ],
          [
            120.6065717,
            18.1724446
          ],
          [
            120.606673,
            18.1726008
          ],
          [
            120.6067501,
            18.172683
          ],
          [
            120.6069218,
            18.1728741
          ],
          [
            120.6070521,
            18.1730258
          ],
          [
            120.6073134,
            18.1733297
          ],
          [
            120.6073737,
            18.1733915
          ],
          [
            120.6074569,
            18.173438
          ],
          [
            120.6075608,
            18.1734291
          ],
          [
            120.6078267,
            18.1733711
          ],
          [
            120.6080259,
            18.1733277
          ],
          [
            120.608304,
            18.1732093
          ],
          [
            120.6085556,
            18.1730949
          ],
          [
            120.6090192,
            18.1728633
          ],
          [
            120.6098172,
            18.1724568
          ],
          [
            120.6102396,
            18.1722536
          ],
          [
            120.6105065,
            18.1721051
          ],
          [
            120.6106608,
            18.1719216
          ],
          [
            120.6107935,
            18.1715623
          ]
        ]
      }
    }
  ]
}